STARLINK-30804          
1 58155U 23166F   26068.73864388 -.00002446  00000+0 -70546-4 0  9994
2 58155  53.1611 219.6057 0001155  81.1570 278.9562 15.30175871133180
NUSAT-49 (KLARA DAN VO*)
1 60500U 24149AJ  26068.79810190  .00012912  00000+0  43568-3 0  9991
2 60500  97.3807 150.7380 0001132 286.7761  73.3356 15.30828857 86935
